DUCHIFAT-1              
1 40021U 14033M   26169.42860156  .00087001  00000+0  88745-3 0  9994
2 40021  98.0449 228.7634 0002884 114.5006 245.6553 15.64804181655941
NANOSATC-BR1            
1 40024U 14033Q   26169.05482056  .00013269  00000+0  43894-3 0  9996
2 40024  98.0715 201.5196 0004490 160.3673 199.7740 15.31480608654119
QB50P1                  
1 40025U 14033R   26169.60000342  .00006188  00000+0  30544-3 0  9992
2 40025  98.0962 180.8451 0007982 209.9659 150.1117 15.18277268653243
DTUSAT-2                
1 40030U 14033W   26169.42675023  .00005196  00000+0  28193-3 0  9997
2 40030  98.0864 167.2324 0006751 220.5200 139.5528 15.15029239652877
QB50P2                  
1 40032U 14033Y   26169.42091575  .00005598  00000+0  30212-3 0  9994
2 40032  98.0750 166.3777 0008130 159.5672 200.5885 15.15170873652856
PERSEUS-M1              
1 40039U 14033AF  26169.30730819  .00001309  00000+0  12317-3 0  9991
2 40039  97.9641 113.4573 0010224 297.0546  62.9630 14.95633663650801
POLYITAN-1              
1 40042U 14033AJ  26169.03120981  .00015610  00000+0  48715-3 0  9999
2 40042  98.0938 195.3722 0008691 138.9044 221.2853 15.33281524653721
TIGRISAT                
1 40043U 14033AK  26169.39596375  .00001621  00000+0  19130-3 0  9999
2 40043  97.7831 319.3796 0050561  71.3546 289.3150 14.85166384645806
CANX-4                  
1 40055U 14034C   26169.36780390  .00000730  00000+0  10096-3 0  9994
2 40055  98.3120  44.7243 0013080  13.3649 346.7906 14.81266555644700
CANX-5                  
1 40056U 14034D   26169.36622337  .00000737  00000+0  10176-3 0  9997
2 40056  98.3122  44.7663 0013089  13.5725 346.5836 14.81283826635514
GONETS-M 10             
1 40063U 14036C   26169.59982574  .00000044  00000+0  24359-3 0  9993
2 40063  82.5118 306.7963 0022688 137.5824 222.7014 12.42945587542422
METEOR-M 2              
1 40069U 14037A   26169.62379354  .00000187  00000+0  10469-3 0  9995
2 40069  98.5115 145.3115 0006691  40.7174 319.4503 14.21462120619526
DX1                     
1 40071U 14037C   26169.57023633  .00001151  00000+0  12595-3 0  9992
2 40071  98.3869 131.3558 0005748 270.0486  90.0071 14.89987017646315
UKUBE-1                 
1 40074U 14037F   26168.96158025  .00007654  00000+0  43097-3 0  9996
2 40074  98.4232 172.3147 0002640 131.7969 228.3486 15.13564400648671
GAOFEN-2                
1 40118U 14049A   26169.59527013  .00000636  00000+0  89197-4 0  9990
2 40118  98.0107 233.8013 0006213 221.7128 138.3611 14.80899809639441
BRITE-PL2 (HEWELIUSZ)   
1 40119U 14049B   26169.57828692  .00001593  00000+0  15241-3 0  9997
2 40119  97.9099 281.5889 0015324 104.3589 255.9333 14.94597585641655
CBERS 4                 
1 40336U 14079A   26169.64035637  .00000285  00000+0  11386-3 0  9991
2 40336  98.3528 226.4265 0001796  62.3091 297.8277 14.35510163604162
SMAP                    
1 40376U 15003A   26169.58417158  .00000323  00000+0  71679-4 0  9993
2 40376  98.1276 176.6589 0001339  96.2556 263.8799 14.63367647607820
GONETS-M 11             
1 40552U 15020A   26169.61831714  .00000081  00000+0  51228-3 0  9998
2 40552  82.4864  30.0999 0016553   2.7395 357.3773 12.42877685508914
GONETS-M 12             
1 40553U 15020B   26169.59179134  .00000141  00000+0  94907-3 0  9995
2 40553  82.4898  31.2407 0015270 347.9649  12.1063 12.42891856508903
GONETS-M 13             
1 40554U 15020C   26169.64579517  .00000109  00000+0  71488-3 0  9994
2 40554  82.4860  29.8215 0013596 333.0996  26.9377 12.42871028508880
DMC3-FM1                
1 40715U 15032A   26169.61967176 -.00000041  00000+0  12303-5 0  9994
2 40715  97.6455  34.7383 0006927  55.9461 304.2412 14.85738622590126
DMC3-FM2                
1 40716U 15032B   26169.57437221  .00000355  00000+0  46816-4 0  9995
2 40716  97.6508  36.2692 0007471  60.4325 299.7635 14.85744338590116
DMC3-FM3                
1 40717U 15032C   26169.59770727  .00000871  00000+0  10618-3 0  9992
2 40717  97.6561  38.0459 0006747  61.0479 299.1413 14.85736485590122
CARBONITE 1 (CBNT-1)    
1 40718U 15032D   26169.59886731  .00001710  00000+0  21332-3 0  9994
2 40718  97.6503 347.6055 0013077 293.1202  66.8634 14.83592420589552
LILACSAT-2              
1 40908U 15049K   26169.62670896  .00013486  00000+0  22981-3 0  9994
2 40908  97.4639 206.5232 0005612 238.1269 121.9437 15.51483884595975
