OBJECT_NAME,OBJECT_ID,EPOCH,MEAN_MOTION,ECCENTRICITY,INCLINATION,RA_OF_ASC_NODE,ARG_OF_PERICENTER,MEAN_ANOMALY,EPHEMERIS_TYPE,CLASSIFICATION_TYPE,NORAD_CAT_ID,ELEMENT_SET_NO,REV_AT_EPOCH,BSTAR,MEAN_MOTION_DOT,MEAN_MOTION_DDOT
DUCHIFAT-1,2014-033M,2026-06-18T10:17:11.174784,15.64804181,.00028843,98.0449,228.7634,114.5006,245.6553,0,U,40021,999,65594,.88744814E-3,.87001E-3,0
NANOSATC-BR1,2014-033Q,2026-06-18T01:18:56.496384,15.31480608,.00044904,98.0715,201.5196,160.3673,199.7740,0,U,40024,999,65411,.43893886E-3,.13269E-3,0
QB50P1,2014-033R,2026-06-18T14:24:00.295488,15.18277268,.00079826,98.0962,180.8451,209.9659,150.1117,0,U,40025,999,65324,.30543944E-3,.6188E-4,0
DTUSAT-2,2014-033W,2026-06-18T10:14:31.219872,15.15029239,.00067518,98.0864,167.2324,220.5200,139.5528,0,U,40030,999,65287,.28192773E-3,.5196E-4,0
QB50P2,2014-033Y,2026-06-18T10:06:07.120800,15.15170873,.00081309,98.0750,166.3777,159.5672,200.5885,0,U,40032,999,65285,.30212253E-3,.5598E-4,0
PERSEUS-M1,2014-033AF,2026-06-18T07:22:31.427616,14.95633663,.00102248,97.9641,113.4573,297.0546,62.9630,0,U,40039,999,65080,.12317381E-3,.1309E-4,0
POLYITAN-1,2014-033AJ,2026-06-18T00:44:56.527584,15.33281524,.00086912,98.0938,195.3722,138.9044,221.2853,0,U,40042,999,65372,.4871518E-3,.1561E-3,0
TIGRISAT,2014-033AK,2026-06-18T09:30:11.268000,14.85166384,.00505615,97.7831,319.3796,71.3546,289.3150,0,U,40043,999,64580,.19129818E-3,.1621E-4,0
CANX-4,2014-034C,2026-06-18T08:49:38.256960,14.81266555,.00130809,98.3120,44.7243,13.3649,346.7906,0,U,40055,999,64470,.10095638E-3,.73E-5,0
CANX-5,2014-034D,2026-06-18T08:47:21.699168,14.81283826,.00130891,98.3122,44.7663,13.5725,346.5836,0,U,40056,999,63551,.10175519E-3,.737E-5,0
GONETS-M 10,2014-036C,2026-06-18T14:23:44.943936,12.42945587,.00226883,82.5118,306.7963,137.5824,222.7014,0,U,40063,999,54242,.24359376E-3,.44E-6,0
METEOR-M 2,2014-037A,2026-06-18T14:58:15.761856,14.21462120,.00066918,98.5115,145.3115,40.7174,319.4503,0,U,40069,999,61952,.10468681E-3,.187E-5,0
DX1,2014-037C,2026-06-18T13:41:08.418912,14.89987017,.00057482,98.3869,131.3558,270.0486,90.0071,0,U,40071,999,64631,.12595199E-3,.1151E-4,0
UKUBE-1,2014-037F,2026-06-17T23:04:40.533600,15.13564400,.000264,98.4232,172.3147,131.7969,228.3486,0,U,40074,999,64867,.43096833E-3,.7654E-4,0
GAOFEN-2,2014-049A,2026-06-18T14:17:11.339232,14.80899809,.00062135,98.0107,233.8013,221.7128,138.3611,0,U,40118,999,63944,.89197177E-4,.636E-5,0
BRITE-PL2 (HEWELIUSZ),2014-049B,2026-06-18T13:52:43.989888,14.94597585,.00153248,97.9099,281.5889,104.3589,255.9333,0,U,40119,999,64165,.15240957E-3,.1593E-4,0
CBERS 4,2014-079A,2026-06-18T15:22:06.790368,14.35510163,.00017961,98.3528,226.4265,62.3091,297.8277,0,U,40336,999,60416,.11385621E-3,.285E-5,0
SMAP,2015-003A,2026-06-18T14:01:12.424512,14.63367647,.00013397,98.1276,176.6589,96.2556,263.8799,0,U,40376,999,60782,.71678521E-4,.323E-5,0
GONETS-M 11,2015-020A,2026-06-18T14:50:22.600896,12.42877685,.00165535,82.4864,30.0999,2.7395,357.3773,0,U,40552,999,50891,.51228148E-3,.81E-6,0
GONETS-M 12,2015-020B,2026-06-18T14:12:10.771776,12.42891856,.00152705,82.4898,31.2407,347.9649,12.1063,0,U,40553,999,50890,.94907489E-3,.141E-5,0
GONETS-M 13,2015-020C,2026-06-18T15:29:56.702688,12.42871028,.00135967,82.4860,29.8215,333.0996,26.9377,0,U,40554,999,50888,.71487699E-3,.109E-5,0
DMC3-FM1,2015-032A,2026-06-18T14:52:19.640064,14.85738622,.00069279,97.6455,34.7383,55.9461,304.2412,0,U,40715,999,59012,.1230267E-5,-.41E-6,0
DMC3-FM2,2015-032B,2026-06-18T13:47:05.758944,14.85744338,.00074712,97.6508,36.2692,60.4325,299.7635,0,U,40716,999,59011,.4681554E-4,.355E-5,0
DMC3-FM3,2015-032C,2026-06-18T14:20:41.908128,14.85736485,.00067473,97.6561,38.0459,61.0479,299.1413,0,U,40717,999,59012,.10617933E-3,.871E-5,0
CARBONITE 1 (CBNT-1),2015-032D,2026-06-18T14:22:22.135584,14.83592420,.00130771,97.6503,347.6055,293.1202,66.8634,0,U,40718,999,58955,.21331786E-3,.171E-4,0
LILACSAT-2,2015-049K,2026-06-18T15:02:27.654144,15.51483884,.00056127,97.4639,206.5232,238.1269,121.9437,0,U,40908,999,59597,.22980935E-3,.13486E-3,0
